{"type": "FeatureCollection", "features": [ {"type": "Feature", "properties": {"norad_id": 66830, "name": "STARLINK-35881", "group": "last-30-days", "lat": -13.24949787690996, "lon": 153.4341371877592, "alt_km": 412.21305419777855, "timestamp": "2025-12-27T08:36:17.078326+00:00", "meta": {"OBJECT_NAME": "STARLINK-35881", "OBJECT_ID": "2025-280K", "EPOCH": "2025-12-27T04:01:35.480064", "MEAN_MOTION": 15.52548077, "ECCENTRICITY": 0.0003155, "INCLINATION": 70.0006, "RA_OF_ASC_NODE": 158.8761, "ARG_OF_PERICENTER": 283.0642, "MEAN_ANOMALY": 77.0192, "EPHEMERIS_TYPE": 0, "CLASSIFICATION_TYPE": "U", "NORAD_CAT_ID": 66830, "ELEMENT_SET_NO": 999, "REV_AT_EPOCH": 517, "BSTAR": 0.0019915, "MEAN_MOTION_DOT": 0.00124416, "MEAN_MOTION_DDOT": 0}, "tle": {"line1": "1 66830U 25280K   25361.16777176  .00124416  00000+0  19915-2 0  9993", "line2": "2 66830  70.0006 158.8761 0003155 283.0642  77.0192 15.52548077  5176"}}, "geometry": {"type": "Point", "coordinates": [153.4341371877592, -13.24949787690996]}}, {"type": "Feature", "properties": {"norad_id": 66831, "name": "STARLINK-35788", "group": "last-30-days", "lat": -11.415955942653959, "lon": 154.13460368621304, "alt_km": 412.2067556768543, "timestamp": "2025-12-27T08:36:17.078338+00:00", "meta": {"OBJECT_NAME": "STARLINK-35788", "OBJECT_ID": "2025-280L", "EPOCH": "2025-12-27T04:01:05.450016", "MEAN_MOTION": 15.52566092, "ECCENTRICITY": 0.0003513, "INCLINATION": 70.0002, "RA_OF_ASC_NODE": 158.8756, "ARG_OF_PERICENTER": 275.5341, "MEAN_ANOMALY": 84.5445, "EPHEMERIS_TYPE": 0, "CLASSIFICATION_TYPE": "U", "NORAD_CAT_ID": 66831, "ELEMENT_SET_NO": 999, "REV_AT_EPOCH": 517, "BSTAR": 0.0022666, "MEAN_MOTION_DOT": 0.00142037, "MEAN_MOTION_DDOT": 0}, "tle": {"line1": "1 66831U 25280L   25361.16742419  .00142037  00000+0  22666-2 0  9992", "line2": "2 66831  70.0002 158.8756 0003513 275.5341  84.5445 15.52566092  5178"}}, "geometry": {"type": "Point", "coordinates": [154.13460368621304, -11.415955942653959]}}, {"type": "Feature", "properties": {"norad_id": 66832, "name": "STARLINK-35768", "group": "last-30-days", "lat": -9.629802006107802, "lon": 154.8059605909339, "alt_km": 412.1233868006766, "timestamp": "2025-12-27T08:36:17.078347+00:00", "meta": {"OBJECT_NAME": "STARLINK-35768", "OBJECT_ID": "2025-280M", "EPOCH": "2025-12-27T04:00:35.955648", "MEAN_MOTION": 15.52564307, "ECCENTRICITY": 0.0003136, "INCLINATION": 70.0005, "RA_OF_ASC_NODE": 158.8732, "ARG_OF_PERICENTER": 276.8618, "MEAN_ANOMALY": 83.2212, "EPHEMERIS_TYPE": 0, "CLASSIFICATION_TYPE": "U", "NORAD_CAT_ID": 66832, "ELEMENT_SET_NO": 999, "REV_AT_EPOCH": 517, "BSTAR": 0.0021558, "MEAN_MOTION_DOT": 0.00134951, "MEAN_MOTION_DDOT": 0}, "tle": {"line1": "1 66832U 25280M   25361.16708282  .00134951  00000+0  21558-2 0  9998", "line2": "2 66832  70.0005 158.8732 0003136 276.8618  83.2212 15.52564307  5173"}}, "geometry": {"type": "Point", "coordinates": [154.8059605909339, -9.629802006107802]}}, {"type": "Feature", "properties": {"norad_id": 66833, "name": "STARLINK-35858", "group": "last-30-days", "lat": -7.839830388174843, "lon": 155.47218287288757, "alt_km": 412.1735205782752, "timestamp": "2025-12-27T08:36:17.078357+00:00", "meta": {"OBJECT_NAME": "STARLINK-35858", "OBJECT_ID": "2025-280N", "EPOCH": "2025-12-27T04:00:06.196032", "MEAN_MOTION": 15.52549099, "ECCENTRICITY": 0.0003453, "INCLINATION": 70.0005, "RA_OF_ASC_NODE": 158.8719, "ARG_OF_PERICENTER": 273.3916, "MEAN_ANOMALY": 86.6876, "EPHEMERIS_TYPE": 0, "CLASSIFICATION_TYPE": "U", "NORAD_CAT_ID": 66833, "ELEMENT_SET_NO": 999, "REV_AT_EPOCH": 517, "BSTAR": 0.0013679, "MEAN_MOTION_DOT": 0.00084983, "MEAN_MOTION_DDOT": 0}, "tle": {"line1": "1 66833U 25280N   25361.16673838  .00084983  00000+0  13679-2 0  9991", "line2": "2 66833  70.0005 158.8719 0003453 273.3916  86.6876 15.52549099  5178"}}, "geometry": {"type": "Point", "coordinates": [155.47218287288757, -7.839830388174843]}}, {"type": "Feature", "properties": {"norad_id": 66834, "name": "STARLINK-35840", "group": "last-30-days", "lat": -6.007911016086593, "lon": 156.14760232584817, "alt_km": 412.3310987909772, "timestamp": "2025-12-27T08:36:17.078367+00:00", "meta": {"OBJECT_NAME": "STARLINK-35840", "OBJECT_ID": "2025-280P", "EPOCH": "2025-12-27T03:59:36.413952", "MEAN_MOTION": 15.52574374, "ECCENTRICITY": 0.0003425, "INCLINATION": 70.0005, "RA_OF_ASC_NODE": 158.8705, "ARG_OF_PERICENTER": 262.9109, "MEAN_ANOMALY": 97.1688, "EPHEMERIS_TYPE": 0, "CLASSIFICATION_TYPE": "U", "NORAD_CAT_ID": 66834, "ELEMENT_SET_NO": 999, "REV_AT_EPOCH": 517, "BSTAR": 0.0022425, "MEAN_MOTION_DOT": 0.00140538, "MEAN_MOTION_DDOT": 0}, "tle": {"line1": "1 66834U 25280P   25361.16639368  .00140538  00000+0  22425-2 0  9990", "line2": "2 66834  70.0005 158.8705 0003425 262.9109  97.1688 15.52574374  5173"}}, "geometry": {"type": "Point", "coordinates": [156.14760232584817, -6.007911016086593]}}, {"type": "Feature", "properties": {"norad_id": 66835, "name": "STARLINK-35890", "group": "last-30-days", "lat": -4.157305443507625, "lon": 156.82519833964338, "alt_km": 411.7045686388774, "timestamp": "2025-12-27T08:36:17.078377+00:00", "meta": {"OBJECT_NAME": "STARLINK-35890", "OBJECT_ID": "2025-280Q", "EPOCH": "2025-12-26T21:47:59.836416", "MEAN_MOTION": 15.52558431, "ECCENTRICITY": 0.0003353, "INCLINATION": 70.0006, "RA_OF_ASC_NODE": 159.5749, "ARG_OF_PERICENTER": 274.5404, "MEAN_ANOMALY": 85.54, "EPHEMERIS_TYPE": 0, "CLASSIFICATION_TYPE": "U", "NORAD_CAT_ID": 66835, "ELEMENT_SET_NO": 999, "REV_AT_EPOCH": 513, "BSTAR": 0.0014851, "MEAN_MOTION_DOT": 0.000924, "MEAN_MOTION_DDOT": 0}, "tle": {"line1": "1 66835U 25280Q   25360.90833144  .00092400  00000+0  14851-2 0  9998", "line2": "2 66835  70.0006 159.5749 0003353 274.5404  85.5400 15.52558431  5133"}}, "geometry": {"type": "Point", "coordinates": [156.82519833964338, -4.157305443507625]}}, {"type": "Feature", "properties": {"norad_id": 66836, "name": "STARLINK-35838", "group": "last-30-days", "lat": -2.4329833849609703, "lon": 157.45254524903567, "alt_km": 411.4180818694231, "timestamp": "2025-12-27T08:36:17.078408+00:00", "meta": {"OBJECT_NAME": "STARLINK-35838", "OBJECT_ID": "2025-280R", "EPOCH": "2025-12-27T03:58:37.485696", "MEAN_MOTION": 15.52567542, "ECCENTRICITY": 0.0003071, "INCLINATION": 70.0007, "RA_OF_ASC_NODE": 158.8672, "ARG_OF_PERICENTER": 280.3634, "MEAN_ANOMALY": 79.7207, "EPHEMERIS_TYPE": 0, "CLASSIFICATION_TYPE": "U", "NORAD_CAT_ID": 66836, "ELEMENT_SET_NO": 999, "REV_AT_EPOCH": 517, "BSTAR": 0.0022523, "MEAN_MOTION_DOT": 0.00141123, "MEAN_MOTION_DDOT": 0}, "tle": {"line1": "1 66836U 25280R   25361.16571164  .00141123  00000+0  22523-2 0  9991", "line2": "2 66836  70.0007 158.8672 0003071 280.3634  79.7207 15.52567542  5176"}}, "geometry": {"type": "Point", "coordinates": [157.45254524903567, -2.4329833849609703]}}, {"type": "Feature", "properties": {"norad_id": 66837, "name": "STARLINK-35729", "group": "last-30-days", "lat": -0.6072527594269719, "lon": 158.1161201073871, "alt_km": 411.43840659203215, "timestamp": "2025-12-27T08:36:17.078420+00:00", "meta": {"OBJECT_NAME": "STARLINK-35729", "OBJECT_ID": "2025-280S", "EPOCH": "2025-12-27T03:58:07.434048", "MEAN_MOTION": 15.52572173, "ECCENTRICITY": 0.000343, "INCLINATION": 70.0008, "RA_OF_ASC_NODE": 158.8662, "ARG_OF_PERICENTER": 275.1838, "MEAN_ANOMALY": 84.8957, "EPHEMERIS_TYPE": 0, "CLASSIFICATION_TYPE": "U", "NORAD_CAT_ID": 66837, "ELEMENT_SET_NO": 999, "REV_AT_EPOCH": 517, "BSTAR": 0.0017637, "MEAN_MOTION_DOT": 0.00110064, "MEAN_MOTION_DDOT": 0}, "tle": {"line1": "1 66837U 25280S   25361.16536382  .00110064  00000+0  17637-2 0  9995", "line2": "2 66837  70.0008 158.8662 0003430 275.1838  84.8957 15.52572173  5179"}}, "geometry": {"type": "Point", "coordinates": [158.1161201073871, -0.6072527594269719]}}, {"type": "Feature", "properties": {"norad_id": 66838, "name": "STARLINK-35886", "group": "last-30-days", "lat": 6.791295640081812, "lon": 160.8139658773704, "alt_km": 401.67462799209534, "timestamp": "2025-12-27T08:36:17.078430+00:00", "meta": {"OBJECT_NAME": "STARLINK-35886", "OBJECT_ID": "2025-280T", "EPOCH": "2025-12-27T02:23:52.356192", "MEAN_MOTION": 15.54588624, "ECCENTRICITY": 0.0005725, "INCLINATION": 70.0008, "RA_OF_ASC_NODE": 159.0386, "ARG_OF_PERICENTER": 299.9232, "MEAN_ANOMALY": 60.1387, "EPHEMERIS_TYPE": 0, "CLASSIFICATION_TYPE": "U", "NORAD_CAT_ID": 66838, "ELEMENT_SET_NO": 999, "REV_AT_EPOCH": 516, "BSTAR": 0.017818, "MEAN_MOTION_DOT": 0.01307598, "MEAN_MOTION_DDOT": 0}, "tle": {"line1": "1 66838U 25280T   25361.09991153  .01307598  00000+0  17818-1 0  9990", "line2": "2 66838  70.0008 159.0386 0005725 299.9232  60.1387 15.54588624  5160"}}, "geometry": {"type": "Point", "coordinates": [160.8139658773704, 6.791295640081812]}}, {"type": "Feature", "properties": {"norad_id": 66839, "name": "STARLINK-35717", "group": "last-30-days", "lat": 1.3128267644112825, "lon": 158.81317011211695, "alt_km": 411.01704072188295, "timestamp": "2025-12-27T08:36:17.078440+00:00", "meta": {"OBJECT_NAME": "STARLINK-35717", "OBJECT_ID": "2025-280U", "EPOCH": "2025-12-26T21:46:30.789120", "MEAN_MOTION": 15.52580898, "ECCENTRICITY": 0.000346, "INCLINATION": 70.0008, "RA_OF_ASC_NODE": 159.5705, "ARG_OF_PERICENTER": 276.0283, "MEAN_ANOMALY": 84.0509, "EPHEMERIS_TYPE": 0, "CLASSIFICATION_TYPE": "U", "NORAD_CAT_ID": 66839, "ELEMENT_SET_NO": 999, "REV_AT_EPOCH": 513, "BSTAR": 0.0020441, "MEAN_MOTION_DOT": 0.00127914, "MEAN_MOTION_DDOT": 0}, "tle": {"line1": "1 66839U 25280U   25360.90730080  .00127914  00000+0  20441-2 0  9998", "line2": "2 66839  70.0008 159.5705 0003460 276.0283  84.0509 15.52580898  5138"}}, "geometry": {"type": "Point", "coordinates": [158.81317011211695, 1.3128267644112825]}}]}